ONEWEB-0551             
1 56053U 23043H   24056.74427538 -.00000059  00000+0 -19006-3 0  9992
2 56053  87.8948  66.9004 0001904  82.2640 277.8707 13.15548941 45633
ONEWEB-0552             
1 56054U 23043J   24056.94789090  .00000015  00000+0  47649-5 0  9995
2 56054  87.9214  51.6364 0002234  82.5019 277.6369 13.21826173 46963
ONEWEB-0553             
1 56055U 23043K   24056.90763172  .00000056  00000+0  11285-3 0  9995
2 56055  87.9073  36.4038 0001505  96.0351 264.0951 13.16594349 48145
ONEWEB-0554             
1 56056U 23043L   24056.89497499 -.00000120  00000+0 -34858-3 0  9995
2 56056  87.9075  36.4247 0002612  88.4257 271.7173 13.16594996 48127
ONEWEB-0555             
1 56057U 23043M   24056.93295292  .00000132  00000+0  31265-3 0  9998
2 56057  87.9074  36.3916 0001847 108.1689 251.9643 13.16593180 48134
ONEWEB-0557             
1 56058U 23043N   24056.94721161  .00000111  00000+0  25747-3 0  9994
2 56058  87.9074  36.4150 0002332 113.7727 246.3648 13.16596009 48137
ONEWEB-0558             
1 56059U 23043P   24056.94159466  .00000124  00000+0  26790-3 0  9991
2 56059  87.9219  51.6174 0001900  71.0205 289.1135 13.21825306 46978
ONEWEB-0559             
1 56060U 23043Q   24056.93055374  .00000015  00000+0  52829-5 0  9998
2 56060  87.9215  51.6191 0002470  78.4252 281.7159 13.21824709 46982
ONEWEB-0566             
1 56061U 23043R   24056.92424115 -.00000006  00000+0 -46716-4 0  9990
2 56061  87.9215  51.6217 0002058  65.2981 294.8367 13.21827307 46968
ONEWEB-0568             
1 56062U 23043S   24056.96462875 -.00000008  00000+0 -53742-4 0  9999
2 56062  87.9074  36.3755 0001684  95.8603 264.2720 13.16595291 48158
ONEWEB-0574             
1 56063U 23043T   24056.91793944  .00000065  00000+0  12567-3 0  9999
2 56063  87.9209  51.6197 0001753  85.5152 274.6183 13.21825837 47000
ONEWEB-0575             
1 56064U 23043U   24056.95829125  .00000002  00000+0 -28859-4 0  9999
2 56064  87.9075  36.3844 0002310  97.7737 262.3657 13.16595396 48149
ONEWEB-0576             
1 56065U 23043V   24056.93928548  .00000116  00000+0  26857-3 0  9997
2 56065  87.9072  36.3881 0001828  99.7828 260.3510 13.16592925 48134
ONEWEB-0577             
1 56066U 23043W   24056.94563295  .00000082  00000+0  18049-3 0  9999
2 56066  87.9074  36.3855 0002588 100.6276 259.5147 13.16595098 48164
ONEWEB-0578             
1 56067U 23043X   24056.90532025  .00000108  00000+0  23044-3 0  9993
2 56067  87.9216  51.6166 0001825  91.1997 268.9346 13.21825779 46964
ONEWEB-0579             
1 56068U 23043Y   24056.89585372  .00000042  00000+0  69371-4 0  9996
2 56068  87.9213  51.6195 0002279  79.0139 281.1251 13.21827754 46979
ONEWEB-0581             
1 56069U 23043Z   24056.95196589  .00000010  00000+0 -66837-5 0  9993
2 56069  87.9073  36.4140 0002529  89.6220 270.5201 13.16595678 48139
ONEWEB-0609             
1 56070U 23043AA  24056.92490081  .00000074  00000+0  16370-3 0  9990
2 56070  87.8945  66.8492 0001819  87.8410 272.2929 13.15547039 45698
ONEWEB-0613             
1 56071U 23043AB  24056.92014829  .00000094  00000+0  21621-3 0  9990
2 56071  87.8950  66.8418 0002060  79.8800 280.2562 13.15547078 45691
ONEWEB-0630             
1 56072U 23043AC  24056.76328077  .00000032  00000+0  51298-4 0  9992
2 56072  87.8946  66.8680 0001891  76.5305 283.6036 13.15549481 45663
ONEWEB-0632             
1 56073U 23043AD  24056.75853570 -.00000024  00000+0 -99081-4 0  9998
2 56073  87.8946  66.8874 0002333  90.5218 269.6180 13.15548727 45666
ONEWEB-0633             
1 56074U 23043AE  24056.75218046 -.00000033  00000+0 -12268-3 0  9993
2 56074  87.8944  66.8745 0001815  70.3544 289.7782 13.15550010 45641
ONEWEB-0634             
1 56075U 23043AF  24056.96610191 -.00000030  00000+0 -11254-3 0  9995
2 56075  87.8950  66.8359 0001489  89.9274 270.2027 13.15549204 45665
ONEWEB-0635             
1 56076U 23043AG  24056.96135018  .00000011  00000+0 -38468-5 0  9992
2 56076  87.8947  66.8946 0002387  91.8010 268.3394 13.15547218 45693
ONEWEB-0636             
1 56077U 23043AH  24056.95343006  .00000117  00000+0  27682-3 0  9990
2 56077  87.8947  66.8651 0002262  94.9064 265.2325 13.15549944 45678
ONEWEB-0637             
1 56078U 23043AJ  24056.94708148  .00000189  00000+0  46760-3 0  9999
2 56078  87.8949  66.8411 0002332  95.3813 264.7584 13.15546600 45699
ONEWEB-0647             
1 56079U 23043AK  24056.94234220  .00000218  00000+0  54421-3 0  9991
2 56079  87.8946  66.8634 0002261  89.2471 270.8919 13.15549441 45682
ONEWEB-0651             
1 56080U 23043AL  24056.93757786  .00000226  00000+0  56645-3 0  9998
2 56080  87.8951  66.8375 0002241  98.0353 262.1031 13.15549687 46881
ONEWEB-0718             
1 56081U 23043AM  24056.93282012  .00000195  00000+0  48522-3 0  9994
2 56081  87.8948  66.8257 0001240  94.2272 265.9000 13.15546883 45693
GSLV R/B                
1 56082U 23043AN  24056.92127548  .00090496  00000+0  97900-3 0  9993
2 56082  87.4083  21.9148 0019596 133.3483 226.9422 15.63050883 52073
ONEWEB-0561             
1 56710U 23068A   24056.75649196  .00000123  00000+0  22091-3 0  9994
2 56710  88.2853  80.5553 0002578  78.0994 282.0436 13.34327845 38264
ONEWEB-0668             
1 56711U 23068B   24056.95440444 -.00009795  00000+0 -25709-1 0  9995
2 56711  87.9271  36.3433 0001936 104.6144 255.5202 13.16525696 40950
ONEWEB-0676             
1 56712U 23068C   24056.92899654  .00000164  00000+0  39649-3 0  9993
2 56712  87.9072  36.4041 0002385  86.2979 273.8425 13.16598232 40873
ONEWEB-0677             
1 56713U 23068D   24056.77943370  .00000113  00000+0  19915-3 0  9990
2 56713  88.3188  78.8735 0002517 100.5887 259.5538 13.34777494 38458
ONEWEB-0678             
1 56714U 23068E   24056.74902056 -.00000087  00000+0 -26466-3 0  9995
2 56714  87.8951  66.8249 0001824  84.8500 275.2838 13.15549218 38520
ONEWEB-0679             
1 56715U 23068F   24056.90365908 -.00000073  00000+0 -22497-3 0  9998
2 56715  87.9068  36.4180 0001856 110.0309 250.1022 13.16583176 40894
ONEWEB-0680             
1 56716U 23068G   24056.95972613 -.00000011  00000+0 -58831-4 0  9995
2 56716  87.9218  51.6436 0001253 109.5588 250.5682 13.21824047 39837
ONEWEB-0681             
1 56717U 23068H   24056.90926623  .00000103  00000+0  21808-3 0  9994
2 56717  87.9214  51.6421 0003120  97.8000 262.3489 13.21825985 39817
ONEWEB-0682             
1 56718U 23068J   24056.92751693 -.00026062  00000+0 -69341-1 0  9996
2 56718  87.8947  66.8346 0001647 107.3713 252.7598 13.15664132 38714
ONEWEB-0683             
1 56719U 23068K   24056.94867882  .00000168  00000+0  41106-3 0  9995
2 56719  87.8948  66.8035 0001695 100.5808 259.5513 13.15546677 38685
ONEWEB-0684             
1 56720U 23068L   24056.95659658  .00000090  00000+0  20424-3 0  9992
2 56720  87.8948  66.8778 0001611  73.7391 286.3917 13.15547783 38514
ONEWEB-0686             
1 56721U 23068M   24056.89418947 -.00000033  00000+0 -11984-3 0  9990
2 56721  87.9068  36.4568 0001750  81.5254 278.6075 13.16586732 40888
ONEWEB-0694             
1 56722U 23068N   24056.91667824  .00066217  00000+0  17203+0 0  9994
2 56722  87.9140  36.3621 0001675  98.8298 247.9738 13.16554895  5302
ONEWEB-0696             
1 56723U 23068P   24056.76170339  .00000072  00000+0  15640-3 0  9992
2 56723  87.8946  66.8907 0002181  85.8385 274.2994 13.15549288 38602
ONEWEB-0703             
1 56724U 23068Q   24056.92331827  .00000180  00000+0  44528-3 0  9999
2 56724  87.8946  66.8799 0003053  75.9636 284.1834 13.15547296 38510
ONEWEB-0721             
1 56725U 23068R   24056.96781785  .00004503  00000+0  53461-3 0  9995
2 56725  86.6794  22.9538 0008948 322.4435  37.6163 14.84242415 41868
